{
  "norad_id": 60438,
  "name": "STARLINK-32240",
  "history": [
    {
      "epoch": "2026-03-28T12:26:03.986016",
      "apogee_km": 476.089514265921,
      "perigee_km": 474.3587664435363,
      "latitude_deg": -5.531167119191811,
      "longitude_deg": -86.46223775995895,
      "semi_major_axis_km": 6853.361140354728,
      "eccentricity": 0.00012627,
      "inclination_deg": 53.1603,
      "raan_deg": 129.5487,
      "arg_perigee_deg": 72.1728,
      "mean_anomaly_deg": 287.941,
      "mean_motion_rev_day": 15.30196962
    }
  ]
}